[{"OBJECT_NAME":"ONEWEB-0593","OBJECT_ID":"2022-166T","EPOCH":"2025-07-28T19:24:55.085760","MEAN_MOTION":13.21825486,"ECCENTRICITY":0.0002026,"INCLINATION":87.9272,"RA_OF_ASC_NODE":308.4978,"ARG_OF_PERICENTER":105.3013,"MEAN_ANOMALY":254.8345,"EPHEMERIS_TYPE":0,"CLASSIFICATION_TYPE":"U","NORAD_CAT_ID":54659,"ELEMENT_SET_NO":999,"REV_AT_EPOCH":12929,"BSTAR":-0.00011207,"MEAN_MOTION_DOT":-3.3e-7,"MEAN_MOTION_DDOT":0},{"OBJECT_NAME":"ONEWEB-0594","OBJECT_ID":"2022-166U","EPOCH":"2025-07-28T07:09:08.668800","MEAN_MOTION":13.21825566,"ECCENTRICITY":0.0002042,"INCLINATION":87.9275,"RA_OF_ASC_NODE":308.6144,"ARG_OF_PERICENTER":98.6658,"MEAN_ANOMALY":261.4708,"EPHEMERIS_TYPE":0,"CLASSIFICATION_TYPE":"U","NORAD_CAT_ID":54660,"ELEMENT_SET_NO":999,"REV_AT_EPOCH":12877,"BSTAR":0.00027556,"MEAN_MOTION_DOT":1.27e-6,"MEAN_MOTION_DDOT":0},{"OBJECT_NAME":"ONEWEB-0595","OBJECT_ID":"2022-166V","EPOCH":"2025-07-28T19:20:22.244064","MEAN_MOTION":13.21825774,"ECCENTRICITY":0.0001862,"INCLINATION":87.9273,"RA_OF_ASC_NODE":308.4899,"ARG_OF_PERICENTER":95.1758,"MEAN_ANOMALY":264.9588,"EPHEMERIS_TYPE":0,"CLASSIFICATION_TYPE":"U","NORAD_CAT_ID":54661,"ELEMENT_SET_NO":999,"REV_AT_EPOCH":12928,"BSTAR":-0.00014533,"MEAN_MOTION_DOT":-4.7e-7,"MEAN_MOTION_DDOT":0},{"OBJECT_NAME":"ONEWEB-0596","OBJECT_ID":"2022-166W","EPOCH":"2025-07-28T18:41:45.818592","MEAN_MOTION":13.21825613,"ECCENTRICITY":0.0001896,"INCLINATION":87.9276,"RA_OF_ASC_NODE":308.5096,"ARG_OF_PERICENTER":100.0828,"MEAN_ANOMALY":260.052,"EPHEMERIS_TYPE":0,"CLASSIFICATION_TYPE":"U","NORAD_CAT_ID":54662,"ELEMENT_SET_NO":999,"REV_AT_EPOCH":12928,"BSTAR":8.2946e-5,"MEAN_MOTION_DOT":4.7e-7,"MEAN_MOTION_DDOT":0},{"OBJECT_NAME":"ONEWEB-0597","OBJECT_ID":"2022-166X","EPOCH":"2025-07-28T20:03:30.838176","MEAN_MOTION":13.21825668,"ECCENTRICITY":0.0002088,"INCLINATION":87.9275,"RA_OF_ASC_NODE":308.5017,"ARG_OF_PERICENTER":103.8414,"MEAN_ANOMALY":256.2952,"EPHEMERIS_TYPE":0,"CLASSIFICATION_TYPE":"U","NORAD_CAT_ID":54663,"ELEMENT_SET_NO":999,"REV_AT_EPOCH":12929,"BSTAR":7.6922e-6,"MEAN_MOTION_DOT":1.6e-7,"MEAN_MOTION_DDOT":0},{"OBJECT_NAME":"ONEWEB-0600","OBJECT_ID":"2022-166Y","EPOCH":"2025-07-28T14:11:32.308224","MEAN_MOTION":13.21825647,"ECCENTRICITY":0.0002134,"INCLINATION":87.9267,"RA_OF_ASC_NODE":308.5468,"ARG_OF_PERICENTER":101.7645,"MEAN_ANOMALY":258.3728,"EPHEMERIS_TYPE":0,"CLASSIFICATION_TYPE":"U","NORAD_CAT_ID":54664,"ELEMENT_SET_NO":999,"REV_AT_EPOCH":12876,"BSTAR":0.00019851,"MEAN_MOTION_DOT":9.5e-7,"MEAN_MOTION_DDOT":0},{"OBJECT_NAME":"ONEWEB-0601","OBJECT_ID":"2022-166Z","EPOCH":"2025-07-28T19:27:10.890144","MEAN_MOTION":13.21826604,"ECCENTRICITY":0.0002055,"INCLINATION":87.9275,"RA_OF_ASC_NODE":308.5176,"ARG_OF_PERICENTER":110.5252,"MEAN_ANOMALY":249.6103,"EPHEMERIS_TYPE":0,"CLASSIFICATION_TYPE":"U","NORAD_CAT_ID":54665,"ELEMENT_SET_NO":999,"REV_AT_EPOCH":12944,"BSTAR":-0.00021353,"MEAN_MOTION_DOT":-7.5e-7,"MEAN_MOTION_DDOT":0},{"OBJECT_NAME":"ONEWEB-0602","OBJECT_ID":"2022-166AA","EPOCH":"2025-07-28T18:37:13.158336","MEAN_MOTION":13.21826181,"ECCENTRICITY":0.0002194,"INCLINATION":87.9278,"RA_OF_ASC_NODE":308.5251,"ARG_OF_PERICENTER":103.8396,"MEAN_ANOMALY":256.2982,"EPHEMERIS_TYPE":0,"CLASSIFICATION_TYPE":"U","NORAD_CAT_ID":54666,"ELEMENT_SET_NO":999,"REV_AT_EPOCH":12929,"BSTAR":0.00013298,"MEAN_MOTION_DOT":6.8e-7,"MEAN_MOTION_DDOT":0},{"OBJECT_NAME":"ONEWEB-0603","OBJECT_ID":"2022-166AB","EPOCH":"2025-07-28T18:44:02.486112","MEAN_MOTION":13.2182713,"ECCENTRICITY":0.0002102,"INCLINATION":87.9267,"RA_OF_ASC_NODE":308.461,"ARG_OF_PERICENTER":106.9127,"MEAN_ANOMALY":253.2237,"EPHEMERIS_TYPE":0,"CLASSIFICATION_TYPE":"U","NORAD_CAT_ID":54667,"ELEMENT_SET_NO":999,"REV_AT_EPOCH":12921,"BSTAR":0.00012437,"MEAN_MOTION_DOT":6.4e-7,"MEAN_MOTION_DDOT":0},{"OBJECT_NAME":"ONEWEB-0604","OBJECT_ID":"2022-166AC","EPOCH":"2025-07-28T20:14:53.495808","MEAN_MOTION":13.21808073,"ECCENTRICITY":0.0001477,"INCLINATION":87.9276,"RA_OF_ASC_NODE":308.4706,"ARG_OF_PERICENTER":104.559,"MEAN_ANOMALY":255.5708,"EPHEMERIS_TYPE":0,"CLASSIFICATION_TYPE":"U","NORAD_CAT_ID":54668,"ELEMENT_SET_NO":999,"REV_AT_EPOCH":12919,"BSTAR":0.0085128,"MEAN_MOTION_DOT":3.529e-5,"MEAN_MOTION_DDOT":0},{"OBJECT_NAME":"ONEWEB-0605","OBJECT_ID":"2022-166AD","EPOCH":"2025-07-28T20:05:47.309568","MEAN_MOTION":13.21825169,"ECCENTRICITY":0.0001894,"INCLINATION":87.9273,"RA_OF_ASC_NODE":308.5029,"ARG_OF_PERICENTER":120.7322,"MEAN_ANOMALY":239.3999,"EPHEMERIS_TYPE":0,"CLASSIFICATION_TYPE":"U","NORAD_CAT_ID":54669,"ELEMENT_SET_NO":999,"REV_AT_EPOCH":12926,"BSTAR":3.159e-5,"MEAN_MOTION_DOT":2.6e-7,"MEAN_MOTION_DDOT":0},{"OBJECT_NAME":"ONEWEB-0606","OBJECT_ID":"2022-166AE","EPOCH":"2025-07-28T18:48:35.496288","MEAN_MOTION":13.21825374,"ECCENTRICITY":0.0001915,"INCLINATION":87.9273,"RA_OF_ASC_NODE":308.5245,"ARG_OF_PERICENTER":95.4936,"MEAN_ANOMALY":264.6417,"EPHEMERIS_TYPE":0,"CLASSIFICATION_TYPE":"U","NORAD_CAT_ID":54670,"ELEMENT_SET_NO":999,"REV_AT_EPOCH":12930,"BSTAR":-2.5959e-5,"MEAN_MOTION_DOT":2.0e-8,"MEAN_MOTION_DDOT":0},{"OBJECT_NAME":"ONEWEB-0607","OBJECT_ID":"2022-166AF","EPOCH":"2025-07-28T14:22:53.762304","MEAN_MOTION":13.21824649,"ECCENTRICITY":0.0002065,"INCLINATION":87.9272,"RA_OF_ASC_NODE":308.5255,"ARG_OF_PERICENTER":104.2725,"MEAN_ANOMALY":255.8638,"EPHEMERIS_TYPE":0,"CLASSIFICATION_TYPE":"U","NORAD_CAT_ID":54671,"ELEMENT_SET_NO":999,"REV_AT_EPOCH":12879,"BSTAR":0.00025829,"MEAN_MOTION_DOT":1.2e-6,"MEAN_MOTION_DDOT":0},{"OBJECT_NAME":"ONEWEB-0608","OBJECT_ID":"2022-166AG","EPOCH":"2025-07-28T14:31:57.861984","MEAN_MOTION":13.21827346,"ECCENTRICITY":0.000217,"INCLINATION":87.9266,"RA_OF_ASC_NODE":308.511,"ARG_OF_PERICENTER":114.9733,"MEAN_ANOMALY":245.1627,"EPHEMERIS_TYPE":0,"CLASSIFICATION_TYPE":"U","NORAD_CAT_ID":54672,"ELEMENT_SET_NO":999,"REV_AT_EPOCH":12880,"BSTAR":0.00017055,"MEAN_MOTION_DOT":8.3e-7,"MEAN_MOTION_DDOT":0},{"OBJECT_NAME":"ONEWEB-0610","OBJECT_ID":"2022-166AH","EPOCH":"2025-07-28T19:31:43.415616","MEAN_MOTION":13.21831363,"ECCENTRICITY":0.0002182,"INCLINATION":87.9274,"RA_OF_ASC_NODE":308.5032,"ARG_OF_PERICENTER":116.0281,"MEAN_ANOMALY":244.1078,"EPHEMERIS_TYPE":0,"CLASSIFICATION_TYPE":"U","NORAD_CAT_ID":54673,"ELEMENT_SET_NO":999,"REV_AT_EPOCH":12920,"BSTAR":-0.000161,"MEAN_MOTION_DOT":-5.3e-7,"MEAN_MOTION_DDOT":0},{"OBJECT_NAME":"ONEWEB-0611","OBJECT_ID":"2022-166AJ","EPOCH":"2025-07-28T19:22:38.431200","MEAN_MOTION":13.21826011,"ECCENTRICITY":0.0002003,"INCLINATION":87.9271,"RA_OF_ASC_NODE":308.5012,"ARG_OF_PERICENTER":93.3154,"MEAN_ANOMALY":266.8209,"EPHEMERIS_TYPE":0,"CLASSIFICATION_TYPE":"U","NORAD_CAT_ID":54674,"ELEMENT_SET_NO":999,"REV_AT_EPOCH":12919,"BSTAR":-0.00017195,"MEAN_MOTION_DOT":-5.8e-7,"MEAN_MOTION_DDOT":0},{"OBJECT_NAME":"ONEWEB-0612","OBJECT_ID":"2022-166AK","EPOCH":"2025-07-28T14:13:48.247392","MEAN_MOTION":13.21825224,"ECCENTRICITY":0.0002035,"INCLINATION":87.9273,"RA_OF_ASC_NODE":308.5212,"ARG_OF_PERICENTER":105.8378,"MEAN_ANOMALY":254.2981,"EPHEMERIS_TYPE":0,"CLASSIFICATION_TYPE":"U","NORAD_CAT_ID":54675,"ELEMENT_SET_NO":999,"REV_AT_EPOCH":12868,"BSTAR":1.573e-5,"MEAN_MOTION_DOT":2.0e-7,"MEAN_MOTION_DDOT":0}]
