ONEWEB-0593             
1 54659U 22166T   25209.80897090 -.00000033  00000+0 -11207-3 0  9996
2 54659  87.9272 308.4978 0002026 105.3013 254.8345 13.21825486129292
ONEWEB-0594             
1 54660U 22166U   25209.29801700  .00000127  00000+0  27556-3 0  9990
2 54660  87.9275 308.6144 0002042  98.6658 261.4708 13.21825566128779
ONEWEB-0595             
1 54661U 22166V   25209.80581301 -.00000047  00000+0 -14533-3 0  9994
2 54661  87.9273 308.4899 0001862  95.1758 264.9588 13.21825774129287
ONEWEB-0596             
1 54662U 22166W   25209.77900253  .00000047  00000+0  82946-4 0  9994
2 54662  87.9276 308.5096 0001896 100.0828 260.0520 13.21825613129287
ONEWEB-0597             
1 54663U 22166X   25209.83577359  .00000016  00000+0  76922-5 0  9993
2 54663  87.9275 308.5017 0002088 103.8414 256.2952 13.21825668129293
ONEWEB-0600             
1 54664U 22166Y   25209.59134616  .00000095  00000+0  19851-3 0  9995
2 54664  87.9267 308.5468 0002134 101.7645 258.3728 13.21825647128762
ONEWEB-0601             
1 54665U 22166Z   25209.81054271 -.00000075  00000+0 -21353-3 0  9999
2 54665  87.9275 308.5176 0002055 110.5252 249.6103 13.21826604129442
ONEWEB-0602             
1 54666U 22166AA  25209.77584674  .00000068  00000+0  13298-3 0  9999
2 54666  87.9278 308.5251 0002194 103.8396 256.2982 13.21826181129290
ONEWEB-0603             
1 54667U 22166AB  25209.78058433  .00000064  00000+0  12437-3 0  9990
2 54667  87.9267 308.4610 0002102 106.9127 253.2237 13.21827130129219
ONEWEB-0604             
1 54668U 22166AC  25209.84367472  .00003529  00000+0  85128-2 0  9999
2 54668  87.9276 308.4706 0001477 104.5590 255.5708 13.21808073129198
ONEWEB-0605             
1 54669U 22166AD  25209.83735312  .00000026  00000+0  31590-4 0  9996
2 54669  87.9273 308.5029 0001894 120.7322 239.3999 13.21825169129266
ONEWEB-0606             
1 54670U 22166AE  25209.78374417  .00000002  00000+0 -25959-4 0  9994
2 54670  87.9273 308.5245 0001915  95.4936 264.6417 13.21825374129300
ONEWEB-0607             
1 54671U 22166AF  25209.59923336  .00000120  00000+0  25829-3 0  9999
2 54671  87.9272 308.5255 0002065 104.2725 255.8638 13.21824649128796
ONEWEB-0608             
1 54672U 22166AG  25209.60553081  .00000083  00000+0  17055-3 0  9998
2 54672  87.9266 308.5110 0002170 114.9733 245.1627 13.21827346128803
ONEWEB-0610             
1 54673U 22166AH  25209.81369694 -.00000053  00000+0 -16100-3 0  9996
2 54673  87.9274 308.5032 0002182 116.0281 244.1078 13.21831363129208
ONEWEB-0611             
1 54674U 22166AJ  25209.80738925 -.00000058  00000+0 -17195-3 0  9993
2 54674  87.9271 308.5012 0002003  93.3154 266.8209 13.21826011129191
ONEWEB-0612             
1 54675U 22166AK  25209.59291953  .00000020  00000+0  15730-4 0  9996
2 54675  87.9273 308.5212 0002035 105.8378 254.2981 13.21825224128684
